ONEWEB-0306             
1 49188U 21083C   24006.45665687  .00000008  00000+0 -13452-4 0  9990
2 49188  87.9227 153.0695 0001308 108.5564 251.5710 13.18685446112367
ONEWEB-0307             
1 49189U 21083D   24006.43430143  .00000249  00000+0  64709-3 0  9992
2 49189  87.9016 137.9367 0001528  99.3908 260.7394 13.13467955113734
ONEWEB-0321             
1 49191U 21083F   24006.25565189  .00000112  00000+0  24453-3 0  9995
2 49191  87.9186  92.1865 0002046 110.7033 249.4320 13.20776940118961
ONEWEB-0325             
1 49194U 21083J   24006.45350330  .00000018  00000+0  12736-4 0  9997
2 49194  87.9221 153.0876 0001437  94.7834 265.3462 13.18687853112358
ONEWEB-0326             
1 49195U 21083K   24006.46771251  .00000074  00000+0  15614-3 0  9997
2 49195  87.9227 153.0873 0001090  82.5544 277.5712 13.18684231112349
